[{"OBJECT_NAME":"ICEYE-X53","OBJECT_ID":"2025-135BJ","EPOCH":"2026-03-09T22:54:54.338112","MEAN_MOTION":15.00849861,"ECCENTRICITY":0.00010276,"INCLINATION":97.7425,"RA_OF_ASC_NODE":186.1287,"ARG_OF_PERICENTER":193.9381,"MEAN_ANOMALY":166.1815,"EPHEMERIS_TYPE":0,"CLASSIFICATION_TYPE":"U","NORAD_CAT_ID":64584,"ELEMENT_SET_NO":999,"REV_AT_EPOCH":3919,"BSTAR":0.00050918186,"MEAN_MOTION_DOT":6.416e-5,"MEAN_MOTION_DDOT":0},{"OBJECT_NAME":"STARLINK-35837","OBJECT_ID":"2025-280V","EPOCH":"2026-03-09T21:21:22.331520","MEAN_MOTION":14.983313,"ECCENTRICITY":0.00029338,"INCLINATION":70.0022,"RA_OF_ASC_NODE":334.0388,"ARG_OF_PERICENTER":271.456,"MEAN_ANOMALY":88.6263,"EPHEMERIS_TYPE":0,"CLASSIFICATION_TYPE":"U","NORAD_CAT_ID":66840,"ELEMENT_SET_NO":999,"REV_AT_EPOCH":1610,"BSTAR":0.00041961122,"MEAN_MOTION_DOT":4.917e-5,"MEAN_MOTION_DDOT":0}]
